{"type": "FeatureCollection", "features": [ {"type": "Feature", "properties": {"norad_id": 35195, "name": "FENGYUN 1C DEB", "group": "fengyun-1c-debris", "lat": 56.99357278435013, "lon": 63.20228609805951, "alt_km": 631.75002539872, "timestamp": "2025-12-09T05:43:21.013946+00:00", "meta": {"OBJECT_NAME": "FENGYUN 1C DEB", "OBJECT_ID": "1999-025DPB", "EPOCH": "2025-12-03T12:33:41.840352", "MEAN_MOTION": 14.55899933, "ECCENTRICITY": 0.01040396, "INCLINATION": 98.9842, "RA_OF_ASC_NODE": 71.1499, "ARG_OF_PERICENTER": 96.2611, "MEAN_ANOMALY": 265.0447, "EPHEMERIS_TYPE": 0, "CLASSIFICATION_TYPE": "U", "NORAD_CAT_ID": 35195, "ELEMENT_SET_NO": 999, "REV_AT_EPOCH": 90792, "BSTAR": 0.0012811423, "MEAN_MOTION_DOT": 6e-05, "MEAN_MOTION_DDOT": 0}, "tle": {"line1": "1 35195U 99025DPB 25337.52340093  .00006000  00000+0  12811-2 0  9994", "line2": "2 35195  98.9842  71.1499 0104039  96.2611 265.0447 14.55899933907929"}}, "geometry": {"type": "Point", "coordinates": [63.20228609805951, 56.99357278435013]}}, {"type": "Feature", "properties": {"norad_id": 35196, "name": "FENGYUN 1C DEB", "group": "fengyun-1c-debris", "lat": -78.58773623184697, "lon": 46.6081798219002, "alt_km": 779.9380320673708, "timestamp": "2025-12-09T05:43:21.013957+00:00", "meta": {"OBJECT_NAME": "FENGYUN 1C DEB", "OBJECT_ID": "1999-025DPC", "EPOCH": "2025-12-08T20:31:38.154144", "MEAN_MOTION": 14.19760434, "ECCENTRICITY": 0.021466, "INCLINATION": 98.5362, "RA_OF_ASC_NODE": 358.1608, "ARG_OF_PERICENTER": 349.63, "MEAN_ANOMALY": 133.1483, "EPHEMERIS_TYPE": 0, "CLASSIFICATION_TYPE": "U", "NORAD_CAT_ID": 35196, "ELEMENT_SET_NO": 999, "REV_AT_EPOCH": 89079, "BSTAR": 0.0015964, "MEAN_MOTION_DOT": 4.214e-05, "MEAN_MOTION_DDOT": 0}, "tle": {"line1": "1 35196U 99025DPC 25342.85530271  .00004214  00000+0  15964-2 0  9993", "line2": "2 35196  98.5362 358.1608 0214660 349.6300 133.1483 14.19760434890799"}}, "geometry": {"type": "Point", "coordinates": [46.6081798219002, -78.58773623184697]}}, {"type": "Feature", "properties": {"norad_id": 35200, "name": "FENGYUN 1C DEB", "group": "fengyun-1c-debris", "lat": -80.1256700585475, "lon": 77.29310788262943, "alt_km": 1361.8623351308233, "timestamp": "2025-12-09T05:43:21.013967+00:00", "meta": {"OBJECT_NAME": "FENGYUN 1C DEB", "OBJECT_ID": "1999-025DPG", "EPOCH": "2025-12-07T22:16:02.097120", "MEAN_MOTION": 13.41954841, "ECCENTRICITY": 0.03532878, "INCLINATION": 98.8698, "RA_OF_ASC_NODE": 319.9137, "ARG_OF_PERICENTER": 72.361, "MEAN_ANOMALY": 346.0378, "EPHEMERIS_TYPE": 0, "CLASSIFICATION_TYPE": "U", "NORAD_CAT_ID": 35200, "ELEMENT_SET_NO": 999, "REV_AT_EPOCH": 65839, "BSTAR": 0.00058804675, "MEAN_MOTION_DOT": 4.43e-06, "MEAN_MOTION_DDOT": 0}, "tle": {"line1": "1 35200U 99025DPG 25341.92780205  .00000443  00000+0  58805-3 0  9992", "line2": "2 35200  98.8698 319.9137 0353287  72.3610 346.0378 13.41954841658392"}}, "geometry": {"type": "Point", "coordinates": [77.29310788262943, -80.1256700585475]}}, {"type": "Feature", "properties": {"norad_id": 35201, "name": "FENGYUN 1C DEB", "group": "fengyun-1c-debris", "lat": 47.26941122333066, "lon": -17.16877990657227, "alt_km": 854.9881344166106, "timestamp": "2025-12-09T05:43:21.013978+00:00", "meta": {"OBJECT_NAME": "FENGYUN 1C DEB", "OBJECT_ID": "1999-025DPH", "EPOCH": "2025-12-06T07:48:17.642016", "MEAN_MOTION": 14.11048703, "ECCENTRICITY": 0.00057709, "INCLINATION": 98.7079, "RA_OF_ASC_NODE": 349.557, "ARG_OF_PERICENTER": 270.7578, "MEAN_ANOMALY": 106.9618, "EPHEMERIS_TYPE": 0, "CLASSIFICATION_TYPE": "U", "NORAD_CAT_ID": 35201, "ELEMENT_SET_NO": 999, "REV_AT_EPOCH": 86929, "BSTAR": 0.00021062979, "MEAN_MOTION_DOT": 3.36e-06, "MEAN_MOTION_DDOT": 0}, "tle": {"line1": "1 35201U 99025DPH 25340.32520419  .00000336  00000+0  21063-3 0  9992", "line2": "2 35201  98.7079 349.5570 0005770 270.7578 106.9618 14.11048703869295"}}, "geometry": {"type": "Point", "coordinates": [-17.16877990657227, 47.26941122333066]}}, {"type": "Feature", "properties": {"norad_id": 35202, "name": "FENGYUN 1C DEB", "group": "fengyun-1c-debris", "lat": -47.91020901152402, "lon": -163.06672066566398, "alt_km": 1370.1270397502149, "timestamp": "2025-12-09T05:43:21.013988+00:00", "meta": {"OBJECT_NAME": "FENGYUN 1C DEB", "OBJECT_ID": "1999-025DPJ", "EPOCH": "2025-12-07T02:12:12.627648", "MEAN_MOTION": 13.34737824, "ECCENTRICITY": 0.03742331, "INCLINATION": 100.0915, "RA_OF_ASC_NODE": 26.1822, "ARG_OF_PERICENTER": 21.7012, "MEAN_ANOMALY": 339.9513, "EPHEMERIS_TYPE": 0, "CLASSIFICATION_TYPE": "U", "NORAD_CAT_ID": 35202, "ELEMENT_SET_NO": 999, "REV_AT_EPOCH": 56901, "BSTAR": 0.00090072677, "MEAN_MOTION_DOT": 6.28e-06, "MEAN_MOTION_DDOT": 0}, "tle": {"line1": "1 35202U 99025DPJ 25341.09181282  .00000628  00000+0  90073-3 0  9990", "line2": "2 35202 100.0915  26.1822 0374233  21.7012 339.9513 13.34737824569012"}}, "geometry": {"type": "Point", "coordinates": [-163.06672066566398, -47.91020901152402]}}, {"type": "Feature", "properties": {"norad_id": 35203, "name": "FENGYUN 1C DEB", "group": "fengyun-1c-debris", "lat": 52.55644872201558, "lon": -66.58561113901968, "alt_km": 1286.607379713675, "timestamp": "2025-12-09T05:43:21.013999+00:00", "meta": {"OBJECT_NAME": "FENGYUN 1C DEB", "OBJECT_ID": "1999-025DPK", "EPOCH": "2025-12-07T04:33:02.628864", "MEAN_MOTION": 13.26403425, "ECCENTRICITY": 0.05114724, "INCLINATION": 102.0739, "RA_OF_ASC_NODE": 307.2564, "ARG_OF_PERICENTER": 171.4627, "MEAN_ANOMALY": 189.5609, "EPHEMERIS_TYPE": 0, "CLASSIFICATION_TYPE": "U", "NORAD_CAT_ID": 35203, "ELEMENT_SET_NO": 999, "REV_AT_EPOCH": 59577, "BSTAR": 0.0024343196, "MEAN_MOTION_DOT": 2.135e-05, "MEAN_MOTION_DDOT": 0}, "tle": {"line1": "1 35203U 99025DPK 25341.18961376  .00002135  00000+0  24343-2 0  9992", "line2": "2 35203 102.0739 307.2564 0511472 171.4627 189.5609 13.26403425595773"}}, "geometry": {"type": "Point", "coordinates": [-66.58561113901968, 52.55644872201558]}}, {"type": "Feature", "properties": {"norad_id": 35204, "name": "FENGYUN 1C DEB", "group": "fengyun-1c-debris", "lat": -22.542197983327203, "lon": -12.23111104256792, "alt_km": 753.6649108104257, "timestamp": "2025-12-09T05:43:21.014009+00:00", "meta": {"OBJECT_NAME": "FENGYUN 1C DEB", "OBJECT_ID": "1999-025DPL", "EPOCH": "2025-12-08T12:20:01.469760", "MEAN_MOTION": 14.48672235, "ECCENTRICITY": 0.0039404, "INCLINATION": 99.0056, "RA_OF_ASC_NODE": 170.771, "ARG_OF_PERICENTER": 336.0413, "MEAN_ANOMALY": 50.5798, "EPHEMERIS_TYPE": 0, "CLASSIFICATION_TYPE": "U", "NORAD_CAT_ID": 35204, "ELEMENT_SET_NO": 999, "REV_AT_EPOCH": 90869, "BSTAR": 0.0027910458, "MEAN_MOTION_DOT": 0.00010579, "MEAN_MOTION_DDOT": 0}, "tle": {"line1": "1 35204U 99025DPL 25342.51390590  .00010579  00000+0  27910-2 0  9999", "line2": "2 35204  99.0056 170.7710 0039404 336.0413  50.5798 14.48672235908696"}}, "geometry": {"type": "Point", "coordinates": [-12.23111104256792, -22.542197983327203]}}, {"type": "Feature", "properties": {"norad_id": 35207, "name": "FENGYUN 1C DEB", "group": "fengyun-1c-debris", "lat": 32.872444329856044, "lon": 75.75056703831015, "alt_km": 729.676374095674, "timestamp": "2025-12-09T05:43:21.014042+00:00", "meta": {"OBJECT_NAME": "FENGYUN 1C DEB", "OBJECT_ID": "1999-025DPP", "EPOCH": "2025-12-07T12:19:03.019296", "MEAN_MOTION": 14.55301427, "ECCENTRICITY": 0.00548039, "INCLINATION": 98.6918, "RA_OF_ASC_NODE": 79.6299, "ARG_OF_PERICENTER": 271.2245, "MEAN_ANOMALY": 88.2673, "EPHEMERIS_TYPE": 0, "CLASSIFICATION_TYPE": "U", "NORAD_CAT_ID": 35207, "ELEMENT_SET_NO": 999, "REV_AT_EPOCH": 64828, "BSTAR": 0.0033629217, "MEAN_MOTION_DOT": 0.0001485, "MEAN_MOTION_DDOT": 0}, "tle": {"line1": "1 35207U 99025DPP 25341.51322939  .00014850  00000+0  33629-2 0  9993", "line2": "2 35207  98.6918  79.6299 0054803 271.2245  88.2673 14.55301427648289"}}, "geometry": {"type": "Point", "coordinates": [75.75056703831015, 32.872444329856044]}}, {"type": "Feature", "properties": {"norad_id": 35208, "name": "FENGYUN 1C DEB", "group": "fengyun-1c-debris", "lat": 2.0889083716920527, "lon": 2.205110954370486, "alt_km": 968.3075400968746, "timestamp": "2025-12-09T05:43:21.014054+00:00", "meta": {"OBJECT_NAME": "FENGYUN 1C DEB", "OBJECT_ID": "1999-025DPQ", "EPOCH": "2025-12-08T07:24:29.871648", "MEAN_MOTION": 13.99639051, "ECCENTRICITY": 0.01010844, "INCLINATION": 98.903, "RA_OF_ASC_NODE": 1.6284, "ARG_OF_PERICENTER": 168.9282, "MEAN_ANOMALY": 191.414, "EPHEMERIS_TYPE": 0, "CLASSIFICATION_TYPE": "U", "NORAD_CAT_ID": 35208, "ELEMENT_SET_NO": 999, "REV_AT_EPOCH": 90501, "BSTAR": 0.0013760881, "MEAN_MOTION_DOT": 2.06e-05, "MEAN_MOTION_DDOT": 0}, "tle": {"line1": "1 35208U 99025DPQ 25342.30867907  .00002060  00000+0  13761-2 0  9996", "line2": "2 35208  98.9030   1.6284 0101084 168.9282 191.4140 13.99639051905011"}}, "geometry": {"type": "Point", "coordinates": [2.205110954370486, 2.0889083716920527]}}, {"type": "Feature", "properties": {"norad_id": 35210, "name": "FENGYUN 1C DEB", "group": "fengyun-1c-debris", "lat": -53.215264910877536, "lon": 154.4815990814078, "alt_km": 752.7250736993474, "timestamp": "2025-12-09T05:43:21.014064+00:00", "meta": {"OBJECT_NAME": "FENGYUN 1C DEB", "OBJECT_ID": "1999-025DPS", "EPOCH": "2025-12-05T23:50:18.341376", "MEAN_MOTION": 14.33492757, "ECCENTRICITY": 0.00493395, "INCLINATION": 99.0965, "RA_OF_ASC_NODE": 343.4463, "ARG_OF_PERICENTER": 258.927, "MEAN_ANOMALY": 157.4301, "EPHEMERIS_TYPE": 0, "CLASSIFICATION_TYPE": "U", "NORAD_CAT_ID": 35210, "ELEMENT_SET_NO": 999, "REV_AT_EPOCH": 90026, "BSTAR": 0.004026418, "MEAN_MOTION_DOT": 0.0001125, "MEAN_MOTION_DDOT": 0}, "tle": {"line1": "1 35210U 99025DPS 25339.99326784  .00011250  00000+0  40264-2 0  9992", "line2": "2 35210  99.0965 343.4463 0049339 258.9270 157.4301 14.33492757900262"}}, "geometry": {"type": "Point", "coordinates": [154.4815990814078, -53.215264910877536]}}]}